     2.100          NAVIGATION                              RINEX VERSION / TYPE
fic2rin                                 02/02/2014 00:17:31 PGM / RUN BY / DATE
                                                            END OF HEADER
16 14  2  1  2  0  0.0 -.233275350183D-03  .147792889038D-11  .000000000000D+00
     .680000000000D+02  .829375000000D+02  .438982571100D-08  .109361258202D+01
     .457279384136D-05  .738152966369D-02  .230036675930D-05  .515379119873D+04
     .525600000000D+06  .651925802231D-07 -.161084105987D+01  .100582838058D-06
     .986875649046D+00  .344906250000D+03  .132645749045D+00 -.835141929871D-08
     .161435295857D-09  .100000000000D+01  .177700000000D+04  .000000000000D+00
     .240000000000D+01  .000000000000D+00 -.977888703346D-08  .680000000000D+02
     .518406000000D+06  .400000000000D+01
17 14  2  1  2  0  0.0 -.643101520836D-04 -.329691829393D-11  .000000000000D+00
     .430000000000D+02 -.122312500000D+03  .465519390751D-08  .133153846826D+00
    -.629201531410D-05  .910083728377D-02  .531040132046D-05  .515373679161D+04
     .525600000000D+06 -.465661287308D-07 -.576810196609D+00  .191852450371D-06
     .967763387984D+00  .282031250000D+03 -.214119960053D+01 -.851749764511D-08
    -.604668043994D-09  .100000000000D+01  .177700000000D+04  .000000000000D+00
     .240000000000D+01  .000000000000D+00 -.102445483208D-07  .430000000000D+02
     .518406000000D+06  .400000000000D+01
18 14  2  1  2  0  0.0  .299334526062D-03  .216004991671D-11  .000000000000D+00
     .950000000000D+02  .603437500000D+02  .568452249746D-08  .174800379085D+01
     .303424894810D-05  .146945404122D-01  .575184822083D-05  .515366192627D+04
     .525600000000D+06 -.357627868652D-06  .146898805407D+01 -.284984707832D-06
     .925792907585D+00  .249125000000D+03 -.206293651445D+01 -.877357974053D-08
     .609311094539D-09  .100000000000D+01  .177700000000D+04  .000000000000D+00
     .240000000000D+01  .000000000000D+00 -.107102096081D-07  .950000000000D+02
     .518406000000D+06  .400000000000D+01
19 14  2  1  2  0  0.0 -.435946974903D-03 -.250111042988D-11  .000000000000D+00
     .110000000000D+03 -.123656250000D+03  .459733435457D-08 -.690864441003D+00
    -.652857124805D-05  .987504771911D-02  .638142228127D-05  .515357099152D+04
     .525600000000D+06  .175088644028D-06 -.525624369519D+00  .875443220139D-07
     .964958456153D+00  .257062500000D+03  .403379944611D+00 -.836284834620D-08
    -.584667210879D-09  .100000000000D+01  .177700000000D+04  .000000000000D+00
     .240000000000D+01  .000000000000D+00 -.149011611938D-07  .110000000000D+03
     .518406000000D+06  .400000000000D+01
20 14  2  1  2  0  0.0  .157801434398D-03  .329691829393D-11  .000000000000D+00
     .870000000000D+02  .651250000000D+02  .559844748352D-08  .224350533562D+01
     .333972275257D-05  .596412376035D-02  .551156699657D-05  .515357850266D+04
     .525600000000D+06  .126659870148D-06  .141577088331D+01 -.614672899246D-07
     .926753382061D+00  .254250000000D+03  .130927247035D+01 -.865500337277D-08
     .634312135932D-09  .100000000000D+01  .177700000000D+04  .000000000000D+00
     .240000000000D+01  .000000000000D+00 -.791624188423D-08  .870000000000D+02
     .518406000000D+06  .400000000000D+01
21 14  2  1  2  0  0.0 -.341436360031D-03 -.216004991671D-11  .000000000000D+00
     .110000000000D+02 -.537187500000D+02  .457447625958D-08  .280105864270D+01
    -.281073153019D-05  .210312700365D-01  .138711184263D-04  .515357627869D+04
     .525600000000D+06  .135973095894D-06  .423123560155D+00 -.217929482460D-06
     .932518879726D+00  .931875000000D+02 -.206786953566D+01 -.764638993140D-08
     .223937899341D-09  .100000000000D+01  .177700000000D+04  .000000000000D+00
     .240000000000D+01  .000000000000D+00 -.111758708954D-07  .110000000000D+02
     .518406000000D+06  .400000000000D+01
22 14  2  1  2  0  0.0  .210437458009D-03  .227373675443D-11  .000000000000D+00
     .340000000000D+02  .582812500000D+02  .579988444561D-08  .121040934723D+01
     .305473804474D-05  .673056603409D-02  .545755028725D-05  .515373121643D+04
     .525600000000D+06 -.169500708580D-06  .147109991969D+01  .633299350739D-07
     .923558269498D+00  .253718750000D+03 -.206436639399D+01 -.891644283421D-08
     .519307345521D-09  .100000000000D+01  .177700000000D+04  .000000000000D+00
     .240000000000D+01  .000000000000D+00 -.172294676304D-07  .340000000000D+02
     .518406000000D+06  .400000000000D+01
25 14  2  1  2  0  0.0  .122622586787D-04  .204636307899D-11  .000000000000D+00
     .540000000000D+02  .102562500000D+03  .455268963780D-08  .247870537393D+01
     .527501106262D-05  .308030925225D-02  .363029539585D-05  .515365782547D+04
     .525600000000D+06 -.104308128357D-06 -.167048274364D+01 -.465661287308D-07
     .975025202148D+00  .315406250000D+03  .610996690327D+00 -.828891669522D-08
     .378944355982D-09  .100000000000D+01  .177700000000D+04  .000000000000D+00
     .240000000000D+01  .000000000000D+00  .558793544769D-08  .540000000000D+02
     .518406000000D+06  .400000000000D+01
26 14  2  1  2  0  0.0  .178047455847D-03 -.108002495836D-10  .000000000000D+00
     .150000000000D+02 -.543750000000D+02  .458304804520D-08 -.106486715462D+01
    -.240653753281D-05  .213949946919D-01  .821426510811D-05  .515367556572D+04
     .525600000000D+06 -.372529029846D-08  .261932702987D+01  .465661287308D-06
     .976188938850D+00  .231343750000D+03  .126029908010D+01 -.825070081766D-08
    -.620740142033D-09  .100000000000D+01  .177700000000D+04  .000000000000D+00
     .240000000000D+01  .000000000000D+00 -.605359673500D-08  .150000000000D+02
     .518406000000D+06  .400000000000D+01
27 14  2  1  2  0  0.0 -.170622952282D-04 -.147792889038D-11  .000000000000D+00
     .580000000000D+02 -.123468750000D+03  .467483758289D-08  .222665728407D+00
    -.655651092529D-05  .690030166879D-03  .462681055069D-05  .515367435646D+04
     .525600000000D+06 -.372529029846D-07 -.621626068764D+00  .186264514923D-07
     .962410738967D+00  .287437500000D+03  .108858961476D+00 -.840106422376D-08
    -.578952687132D-09  .100000000000D+01  .177700000000D+04  .000000000000D+00
     .240000000000D+01  .000000000000D+00  .186264514923D-08  .580000000000D+02
     .518406000000D+06  .400000000000D+01
28 14  2  1  2  0  0.0  .329037196934D-03  .295585778076D-11  .000000000000D+00
     .800000000000D+02  .830000000000D+02  .458376236067D-08  .984067253025D+00
     .414252281189D-05  .192812267924D-01  .343844294548D-05  .515365571976D+04
     .525600000000D+06 -.312924385071D-06 -.160491989017D+01 -.119209289551D-06
     .985372376372D+00  .333156250000D+03 -.172880419065D+01 -.867678999456D-08
     .253224833545D-09  .100000000000D+01  .177700000000D+04  .000000000000D+00
     .340000000000D+01  .000000000000D+00 -.107102096081D-07  .800000000000D+02
     .518406000000D+06  .400000000000D+01
29 14  2  1  2  0  0.0  .507566612214D-03  .272848410532D-11  .000000000000D+00
     .730000000000D+02 -.124375000000D+03  .447232914760D-08  .307249080818D+01
    -.652484595776D-05  .160807534121D-02  .482983887196D-05  .515376245117D+04
     .525600000000D+06  .186264514923D-07 -.567849225040D+00 -.447034835815D-07
     .968474045791D+00  .290000000000D+03 -.101376072156D+01 -.823177145775D-08
    -.536093759028D-09  .100000000000D+01  .177700000000D+04  .000000000000D+00
     .240000000000D+01  .000000000000D+00 -.931322574615D-08  .730000000000D+02
     .518406000000D+06  .400000000000D+01
30 14  2  1  2  0  0.0 -.154373236001D-03  .795807864051D-12  .000000000000D+00
     .370000000000D+02  .873750000000D+02  .580417033842D-08  .112308419024D+01
     .474229454994D-05  .655367563013D-02  .336952507496D-05  .515375450516D+04
     .525600000000D+06 -.428408384323D-07 -.165269497349D+01  .163912773132D-06
     .979802658108D+00  .325187500000D+03  .840836868893D+00 -.847356724380D-08
     .270368404786D-09  .100000000000D+01  .177700000000D+04  .000000000000D+00
     .240000000000D+01  .630000000000D+02 -.190921127796D-07  .370000000000D+02
     .518406000000D+06  .400000000000D+01
31 14  2  1  2  0  0.0  .332879833877D-03  .341060513165D-12  .000000000000D+00
     .360000000000D+02  .697812500000D+02  .380372986919D-08 -.268128628163D+01
     .373460352421D-05  .823899079114D-02  .132266432047D-04  .515377652168D+04
     .525600000000D+06 -.651925802231D-07 -.268522558940D+01  .124797224998D-06
     .979518634026D+00  .135656250000D+03 -.668669532130D+00 -.749745515624D-08
     .535736601294D-11  .100000000000D+01  .177700000000D+04  .000000000000D+00
     .240000000000D+01  .000000000000D+00 -.130385160446D-07  .360000000000D+02
     .518406000000D+06  .400000000000D+01
32 14  2  1  2  0  0.0 -.493026804179D-03  .602540239925D-11  .000000000000D+00
     .350000000000D+02  .492500000000D+02  .525343311229D-08 -.207974556607D+01
     .255554914474D-05  .114952145377D-01  .478141009808D-05  .515350331497D+04
     .525600000000D+06 -.147148966789D-06  .156067277130D+01 -.111758708954D-06
     .947673546544D+00  .283781250000D+03 -.190157940499D+00 -.853356974315D-08
     .565737850967D-09  .100000000000D+01  .177700000000D+04  .000000000000D+00
     .240000000000D+01  .000000000000D+00 -.325962901115D-08  .350000000000D+02
     .518406000000D+06  .400000000000D+01
24 14  2  1  2  0  0.0 -.225529074669D-04 -.682121026330D-12  .000000000000D+00
     .600000000000D+02  .541562500000D+02  .432518016111D-08 -.161904771869D+01
     .276044011116D-05  .180661899503D-02  .140592455864D-04  .515363421631D+04
     .525600000000D+06 -.558793544769D-08 -.272353879800D+01 -.204890966415D-07
     .957979289466D+00  .107343750000D+03  .161180721047D+00 -.787068498848D-08
    -.139291516336D-10  .100000000000D+01  .177700000000D+04  .000000000000D+00
     .240000000000D+01  .000000000000D+00  .325962901115D-08  .600000000000D+02
     .518436000000D+06  .400000000000D+01
